[{"OBJECT_NAME":"STARLINK-35456","OBJECT_ID":"2025-223P","EPOCH":"2026-03-09T22:16:04.991520","MEAN_MOTION":15.30213807,"ECCENTRICITY":0.00012815,"INCLINATION":53.159,"RA_OF_ASC_NODE":292.9591,"ARG_OF_PERICENTER":93.6928,"MEAN_ANOMALY":266.422,"EPHEMERIS_TYPE":0,"CLASSIFICATION_TYPE":"U","NORAD_CAT_ID":65867,"ELEMENT_SET_NO":999,"REV_AT_EPOCH":2424,"BSTAR":0.00046642625,"MEAN_MOTION_DOT":0.00013486,"MEAN_MOTION_DDOT":0},{"OBJECT_NAME":"CZ-6A DEB","OBJECT_ID":"2022-151QV","EPOCH":"2026-03-09T04:36:08.895168","MEAN_MOTION":15.24642942,"ECCENTRICITY":0.00273347,"INCLINATION":98.639,"RA_OF_ASC_NODE":154.2763,"ARG_OF_PERICENTER":174.5721,"MEAN_ANOMALY":185.5815,"EPHEMERIS_TYPE":0,"CLASSIFICATION_TYPE":"U","NORAD_CAT_ID":54908,"ELEMENT_SET_NO":999,"REV_AT_EPOCH":17373,"BSTAR":0.0098290719,"MEAN_MOTION_DOT":0.00253193,"MEAN_MOTION_DDOT":0}]
